NORAD_CAT_ID,OBJECT_NAME,OBJECT_TYPE,EPOCH,MEAN_MOTION,ECCENTRICITY,INCLINATION,RA_OF_ASC_NODE,ARG_OF_PERICENTER,MEAN_ANOMALY,BSTAR,MEAN_MOTION_DOT,MEAN_MOTION_DDOT,TLE_LINE0,TLE_LINE1,TLE_LINE2,SEMIMAJOR_AXIS,PERIOD,APOGEE,PERIGEE,DECAYED
53137.0,STARLINK-4145,PAYLOAD,2023-10-21 12:59:37,15.08838688,0.000128,53.2156,120.3664,92.7178,267.3961,0.00026032,3.857e-05,0.0,0 STARLINK-4145,1 53137U 22083F   23294.54140624  .00003857  00000-0  26032-3 0  9999,2 53137  53.2156 120.3664 0001280  92.7178 267.3961 15.08838688 69857,6917.884,95.438,540.635,538.864,0.0
53137.0,STARLINK-4145,PAYLOAD,2023-10-21 19:21:09,15.08844254,0.0001258,53.2159,119.1771,86.2142,273.8994,0.00028191,4.202e-05,0.0,0 STARLINK-4145,1 53137U 22083F   23294.80636453  .00004202  00000-0  28191-3 0  9991,2 53137  53.2159 119.1771 0001258  86.2142 273.8994 15.08844254 70529,6917.867,95.437,540.603,538.862,0.0
53137.0,STARLINK-4145,PAYLOAD,2023-10-22 11:15:01,15.08839935,0.0001362,53.2136,116.2063,93.9263,266.1884,0.00012966,1.776e-05,0.0,0 STARLINK-4145,1 53137U 22083F   23295.46877023  .00001776  00000-0  12966-3 0  9990,2 53137  53.2136 116.2063 0001362  93.9263 266.1884 15.08839935 70625,6917.881,95.438,540.688,538.803,0.0
53137.0,STARLINK-4145,PAYLOAD,2023-10-22 19:11:57,15.0883464,0.0001348,53.2154,114.7174,94.297,265.8177,8.5739e-05,1.077e-05,0.0,0 STARLINK-4145,1 53137U 22083F   23295.79996977  .00001077  00000-0  85739-4 0  9999,2 53137  53.2154 114.7174 0001348  94.2970 265.8177 15.08834640 70049,6917.897,95.438,540.694,538.829,0.0
53137.0,STARLINK-4145,PAYLOAD,2023-10-23 19:02:44,15.08843223,0.0001321,53.2155,110.2568,96.5393,263.575,5.6943e-05,6.19e-06,0.0,0 STARLINK-4145,1 53137U 22083F   23296.79356771  .00000619  00000-0  56943-4 0  9998,2 53137  53.2155 110.2568 0001321  96.5393 263.5750 15.08843223 70828,6917.871,95.437,540.649,538.822,0.0
53137.0,STARLINK-4145,PAYLOAD,2023-10-23 22:13:30,15.08846103,0.0001318,53.2155,109.662,97.6938,262.4204,8.7775e-05,1.11e-05,0.0,0 STARLINK-4145,1 53137U 22083F   23296.92604604  .00001110  00000-0  87775-4 0  9998,2 53137  53.2155 109.6620 0001318  97.6938 262.4204 15.08846103 70217,6917.862,95.437,540.639,538.815,0.0
53137.0,STARLINK-4145,PAYLOAD,2023-10-24 12:31:59,15.08836793,0.0001412,53.2153,106.9856,97.1237,262.9915,0.00012054,1.631e-05,0.0,0 STARLINK-4145,1 53137U 22083F   23297.52221192  .00001631  00000-0  12054-3 0  9997,2 53137  53.2153 106.9856 0001412  97.1237 262.9915 15.08836793 70935,6917.89,95.438,540.732,538.778,0.0
53137.0,STARLINK-4145,PAYLOAD,2023-10-24 14:07:22,15.08838491,0.0001376,53.2154,106.6882,98.4901,261.6247,0.00012583,1.715e-05,0.0,0 STARLINK-4145,1 53137U 22083F   23297.58845140  .00001715  00000-0  12583-3 0  9998,2 53137  53.2154 106.6882 0001376  98.4901 261.6247 15.08838491 70316,6917.885,95.438,540.702,538.798,0.0
53137.0,STARLINK-4145,PAYLOAD,2023-10-25 13:58:09,15.08841279,0.0001331,53.2155,102.2275,93.5201,266.5943,0.00012582,1.715e-05,0.0,0 STARLINK-4145,1 53137U 22083F   23298.58205129  .00001715  00000-0  12582-3 0  9995,2 53137  53.2155 102.2275 0001331  93.5201 266.5943 15.08841279 71096,6917.876,95.437,540.662,538.821,0.0
53137.0,STARLINK-4145,PAYLOAD,2023-10-26 10:38:10,15.08835678,0.0001369,53.2158,98.3616,93.4617,266.6532,0.00032121,4.827e-05,0.0,0 STARLINK-4145,1 53137U 22083F   23299.44317577  .00004827  00000-0  32121-3 0  9990,2 53137  53.2158  98.3616 0001369  93.4617 266.6532 15.08835678 71220,6917.894,95.438,540.706,538.812,0.0
53137.0,STARLINK-4145,PAYLOAD,2023-10-26 12:13:33,15.08842652,0.0001327,53.2158,98.0643,89.9776,270.1368,0.00015523,2.184e-05,0.0,0 STARLINK-4145,1 53137U 22083F   23299.50941085  .00002184  00000-0  15523-3 0  9995,2 53137  53.2158  98.0643 0001327  89.9776 270.1368 15.08842652 70605,6917.872,95.437,540.655,538.819,0.0
53137.0,STARLINK-4145,PAYLOAD,2023-10-26 16:59:42,15.08849732,0.0001353,53.2159,97.1724,90.8419,269.2728,0.00021429,3.125e-05,0.0,0 STARLINK-4145,1 53137U 22083F   23299.70812686  .00003125  00000-0  21429-3 0  9999,2 53137  53.2159  97.1724 0001353  90.8419 269.2728 15.08849732 71268,6917.851,95.437,540.652,538.78,0.0
53137.0,STARLINK-4145,PAYLOAD,2023-10-26 21:45:50,15.08862761,0.0001316,53.2159,96.2803,92.1438,267.9704,-3.0998e-05,-7.82e-06,0.0,0 STARLINK-4145,1 53137U 22083F   23299.90683765 -.00000782  00000-0 -30998-4 0  9995,2 53137  53.2159  96.2803 0001316  92.1438 267.9704 15.08862761 70660,6917.811,95.436,540.586,538.765,0.0
53137.0,STARLINK-4145,PAYLOAD,2023-10-27 04:07:24,15.08848754,0.0001388,53.2159,95.0908,88.6325,271.4826,0.00018435,2.648e-05,0.0,0 STARLINK-4145,1 53137U 22083F   23300.17180672  .00002648  00000-0  18435-3 0  9998,2 53137  53.2159  95.0908 0001388  88.6325 271.4826 15.08848754 70703,6917.854,95.437,540.679,538.758,0.0
53137.0,STARLINK-4145,PAYLOAD,2023-10-27 20:01:15,15.08852279,0.0001426,53.2157,92.1166,87.4167,272.6988,0.00023401,3.44e-05,0.0,0 STARLINK-4145,1 53137U 22083F   23300.83420279  .00003440  00000-0  23401-3 0  9991,2 53137  53.2157  92.1166 0001426  87.4167 272.6988 15.08852279 71439,6917.843,95.437,540.694,538.721,0.0
53137.0,STARLINK-4145,PAYLOAD,2023-10-28 10:19:43,15.08835188,0.0001124,53.2161,89.4406,88.9284,271.1837,-3.2094e-05,-7.98e-06,0.0,0 STARLINK-4145,1 53137U 22083F   23301.43037032 -.00000798  00000-0 -32094-4 0  9993,2 53137  53.2161  89.4406 0001124  88.9284 271.1837 15.08835188 71528,6917.895,95.438,540.538,538.983,0.0
53137.0,STARLINK-4145,PAYLOAD,2023-10-28 13:30:30,15.08833976,0.000126,53.2165,88.8452,90.6494,269.4643,-4.7393e-05,-1.042e-05,0.0,0 STARLINK-4145,1 53137U 22083F   23301.56285257 -.00001042  00000-0 -47393-4 0  9992,2 53137  53.2165  88.8452 0001260  90.6494 269.4643 15.08833976 70910,6917.899,95.438,540.635,538.892,0.0
53137.0,STARLINK-4145,PAYLOAD,2023-10-28 16:41:16,15.08835686,0.0001436,53.2163,88.2504,84.3458,275.7698,-4.8569e-05,-1.061e-05,0.0,0 STARLINK-4145,1 53137U 22083F   23301.69533210 -.00001061  00000-0 -48569-4 0  9998,2 53137  53.2163  88.2504 0001436  84.3458 275.7698 15.08835686 70937,6917.894,95.438,540.752,538.765,0.0
53137.0,STARLINK-4145,PAYLOAD,2023-10-29 10:10:30,15.08846038,0.0001309,53.2156,84.9787,85.598,274.5162,0.00017002,2.419e-05,0.0,0 STARLINK-4145,1 53137U 22083F   23302.42396736  .00002419  00000-0  17002-3 0  9993,2 53137  53.2156  84.9787 0001309  85.5980 274.5162 15.08846038 71675,6917.862,95.437,540.632,538.821,0.0
53137.0,STARLINK-4145,PAYLOAD,2023-10-29 13:21:16,15.08848348,0.0001535,53.2176,84.3846,87.8023,272.3145,0.00014797,2.068e-05,0.0,0 STARLINK-4145,1 53137U 22083F   23302.55644454  .00002068  00000-0  14797-3 0  9998,2 53137  53.2176  84.3846 0001535  87.8023 272.3145 15.08848348 71067,6917.855,95.437,540.782,538.658,0.0
53137.0,STARLINK-4145,PAYLOAD,2023-10-29 16:32:02,15.08856876,0.000148,53.2175,83.7922,82.7331,277.3829,0.00028723,4.288e-05,0.0,0 STARLINK-4145,1 53137U 22083F   23302.68892123  .00004288  00000-0  28723-3 0  9990,2 53137  53.2175  83.7922 0001480  82.7331 277.3829 15.08856876 71710,6917.829,95.436,540.718,538.67,0.0
53137.0,STARLINK-4145,PAYLOAD,2023-10-30 10:01:18,15.08837617,0.0001327,53.2166,80.5178,63.3673,296.7455,0.0001457,2.032e-05,0.0,0 STARLINK-4145,1 53137U 22083F   23303.41757282  .00002032  00000-0  14570-3 0  9998,2 53137  53.2166  80.5178 0001327  63.3673 296.7455 15.08837617 71826,6917.888,95.438,540.671,538.835,0.0
53137.0,STARLINK-4145,PAYLOAD,2023-10-30 16:22:50,15.08838546,0.0002032,53.2171,79.3281,78.4164,281.7056,4.0957e-05,3.64e-06,0.0,0 STARLINK-4145,1 53137U 22083F   23303.68253163  .00000364  00000-0  40957-4 0  9991,2 53137  53.2171  79.3281 0002032  78.4164 281.7056 15.08838546 71237,6917.885,95.438,541.156,538.344,0.0
53137.0,STARLINK-4145,PAYLOAD,2023-10-31 13:02:51,15.08836317,0.0001646,53.2172,75.464,82.8234,277.2945,-1.3832e-05,-5.08e-06,0.0,0 STARLINK-4145,1 53137U 22083F   23304.54365523 -.00000508  00000-0 -13832-4 0  9995,2 53137  53.2172  75.4640 0001646  82.8234 277.2945 15.08836317 71995,6917.892,95.438,540.895,538.618,0.0
53137.0,STARLINK-4145,PAYLOAD,2023-10-31 14:38:14,15.08836699,0.0001639,53.2175,75.1667,83.4565,276.6613,1.6785e-05,-2.1e-07,0.0,0 STARLINK-4145,1 53137U 22083F   23304.60989551 -.00000021  00000-0  16785-4 0  9994,2 53137  53.2175  75.1667 0001639  83.4565 276.6613 15.08836699 71370,6917.89,95.438,540.889,538.622,0.0
53137.0,STARLINK-4145,PAYLOAD,2023-10-31 17:49:01,15.08841279,0.0001673,53.218,74.5725,85.0417,275.0766,0.00014349,1.996e-05,0.0,0 STARLINK-4145,1 53137U 22083F   23304.74237469  .00001996  00000-0  14349-3 0  9997,2 53137  53.2180  74.5725 0001673  85.0417 275.0766 15.08841279 71390,6917.876,95.437,540.899,538.584,0.0
53137.0,STARLINK-4145,PAYLOAD,2023-11-01 14:29:02,15.08842463,0.0001478,53.2167,70.7055,82.4515,277.6645,0.00025092,3.708e-05,0.0,0 STARLINK-4145,1 53137U 22083F   23305.60349702  .00003708  00000-0  25092-3 0  9997,2 53137  53.2167  70.7055 0001478  82.4515 277.6645 15.08842463 71527,6917.873,95.437,540.76,538.715,0.0
53137.0,STARLINK-4145,PAYLOAD,2023-11-01 16:04:25,15.08844246,0.0001482,53.2168,70.4081,81.767,278.349,0.00027814,4.142e-05,0.0,0 STARLINK-4145,1 53137U 22083F   23305.66973640  .00004142  00000-0  27814-3 0  9994,2 53137  53.2168  70.4081 0001482  81.7670 278.3490 15.08844246 72161,6917.867,95.437,540.758,538.707,0.0
53137.0,STARLINK-4145,PAYLOAD,2023-11-02 12:44:26,15.08840136,0.000146,53.2171,66.5428,93.3957,266.7202,0.00011746,1.582e-05,0.0,0 STARLINK-4145,1 53137U 22083F   23306.53085836  .00001582  00000-0  11746-3 0  9994,2 53137  53.2171  66.5428 0001460  93.3957 266.7202 15.08840136 72299,6917.88,95.438,540.755,538.735,0.0
53137.0,STARLINK-4145,PAYLOAD,2023-11-02 14:19:49,15.08840484,0.000138,53.2168,66.2466,95.5251,264.5898,0.00012073,1.634e-05,0.0,0 STARLINK-4145,1 53137U 22083F   23306.59709753  .00001634  00000-0  12073-3 0  9993,2 53137  53.2168  66.2466 0001380  95.5251 264.5898 15.08840484 71670,6917.879,95.438,540.699,538.789,0.0
